1 44733U 19074W   20028.91667824  .00153533  00000-0  10745-2 0  9996
2 44733  53.0057 141.1438 0002542  22.2915 342.4660 15.73279538 12344
1 44733U 19074W   20029.33334491  .00378257  00000-0  25726-2 0  9991
2 44733  53.0058 139.0703 0002431  26.9358 179.1799 15.73262196 12413
1 44733U 19074W   20029.91667824  .00011967  00000-0  89457-4 0  9999
2 44733  53.0048 136.1707 0002337  13.1600 258.5221 15.73223249 12505
1 44733U 19074W   20030.25001157  .00308603  00000-0  21298-2 0  9992
2 44733  53.0049 134.5118 0002119  14.7254 345.8942 15.73124518 12558
1 44733U 19074W   20030.50002315  .00073199  00000-0  52103-3 0  9996
2 44733  53.0049 133.2701 0002294  12.7204 324.6739 15.73211345 12597
1 44733U 19074W   20031.41667824  .00154848  00000-0  10783-2 0  9997
2 44733  53.0050 128.7102 0002388  14.2453 118.1503 15.73392168 12734
1 44733U 19074W   20031.58334491  .00071070  00000-0  50172-3 0  9998
2 44733  53.0049 127.8821 0002539  14.6517 342.3513 15.73415600 12765
1 44733U 19074W   20032.00001157  .01512032  00000-0  97243-2 0  9994
2 44733  53.0019 125.8351 0002906  10.8191 187.0703 15.72989584 12831
1 44733U 19074W   20031.91667824 +.00134363 +00000-0 +93549-3 0  9994
2 44733 053.0044 126.2230 0002521 013.9675 072.2890 15.73467217001828
1 44733U 19074W   20032.25001157  .00070926  00000-0  50534-3 0  9994
2 44733  53.0044 124.5941 0002907  15.3607 159.2356 15.73199716 12862
1 44733U 19074W   20032.58334491  .00021627  00000-0  15813-3 0  9995
2 44733  53.0024 122.9375 0002822  13.8158 249.7574 15.73191014 12920
1 44733U 19074W   20032.91667824  .00412707  00000-0  28078-2 0  9990
2 44733  53.0050 121.2515 0004354 293.3072  59.1155 15.73151140 12978
1 44733U 19074W   20033.25001157  .00320081  00000-0  22041-2 0  9996
2 44733  53.0052 119.5930 0004303 291.5332 149.7733 15.73138328 13022
1 44733U 19074W   20033.58334491  .00045704  00000-0  32885-3 0  9996
2 44733  53.0051 117.9375 0004552 295.0050 235.1952 15.73144739 13079
1 44733U 19074W   20033.83334491  .00817804  00000-0  53061-2 0  9990
2 44733  53.0070 116.7119 0002545   0.0645 147.1693 15.73099162 13115
1 44733U 19074W   20033.91667824 +.01572747 +00000-0 +10082-1 0  9998
2 44733 053.0058 116.2963 0003148 018.5139 240.9839 15.72960065001787
1 44733U 19074W   20034.58334491  .00069874  00000-0  49793-3 0  9997
2 44733  53.0046 112.9878 0004315 359.1876  78.2293 15.73195580 13233
1 44733U 19074W   20034.00001157 +.00461700 +00000-0 +31299-2 0  9999
2 44733 053.0033 115.8846 0002960 346.4945 025.2350 15.73095481013141
1 44733U 19074W   20034.91667824 +.01760916 +00000-0 +11126-1 0  9996
2 44733 053.0057 111.3255 0003542 354.8364 171.5787 15.72972564001812
1 44733U 19074W   20035.08335648  .00170353  00000-0  11960-2 0  9997
2 44733  53.0035 110.4964 0004565 312.5803  78.3758 15.73141492 13319
1 44733U 19074W   20035.25001157  .01745308  00000-0  11047-1 0  9995
2 44733  53.0049 109.6712 0004779 340.1209 275.2712 15.72961315 13343
1 44733U 19074W   20035.58334491  .00367471  00000-0  25188-2 0  9993
2 44733  53.0055 107.9909 0008503 274.2678  70.1314 15.73080774 13392
1 44733U 19074W   20035.91667824  .00243067  00000-0  16866-2 0  9996
2 44733  53.0053 106.3318 0008493 274.5479 158.7703 15.73158676 13445
1 44733U 19074W   20036.25001157  .00024496  00000-0  17776-3 0  9990
2 44733  53.0055 104.6742 0008263 274.7326 247.5478 15.73248704 13490
1 44733U 19074W   20036.91667824  .00089472  00000-0  63361-3 0  9998
2 44733  53.0060 101.3591 0008195 278.3950  61.8597 15.73211093 13602
1 44733U 19074W   20037.25001157  .00210528  00000-0  14655-2 0  9996
2 44733  53.0060  99.7014 0008120 279.0745 150.1624 15.73186651 13659
1 44733U 19074W   20037.58334491 +.00311583 +00000-0 +21456-2 0  9992
2 44733 053.0059 098.0457 0008244 282.2539 235.9580 15.73137133001789
1 44733U 19074W   20037.83334491  .00091435  00000-0  64731-3 0  9995
2 44733  53.0056  96.8012 0008274 282.1637 212.7566 15.73208457 13744
1 44733U 19074W   20037.91667824 +.00150797 +00000-0 +10582-2 0  9994
2 44733 053.0057 096.3863 0008240 282.0617 325.1092 15.73188873001776
1 44733U 19074W   20038.25001157 -.00020455  00000-0 -14096-3 0  9997
2 44733  53.0057  94.7291 0008211 282.6606  53.4748 15.73247084 13812
1 44733U 19074W   20038.58334491 +.00091140 +00000-0 +64617-3 0  9994
2 44733 053.0057 093.0732 0008341 284.7330 140.3926 15.73174831001781
1 44733U 19074W   20038.91667824 +.00297067 +00000-0 +20472-2 0  9996
2 44733 053.0060 091.4135 0008364 285.1789 228.9124 15.73160626001782
1 44733U 19074W   20039.58334491  .00071155  00000-0  50583-3 0  9996
2 44733  53.0057  88.1001 0008359 289.4769  42.5799 15.73211902 14025
1 44733U 19074W   20039.91667824  .00223656  00000-0  15558-2 0  9999
2 44733  53.0056  86.4404 0008318 287.9797 133.0607 15.73160685 14071
1 44733U 19074W   20040.25001157 -.00013149  00000-0 -88963-4 0  9997
2 44733  53.0054  84.7834 0008294 289.4714 220.5237 15.73237779 14122
1 44733U 19074W   20040.75001157 -.00003727 +00000-0 -21982-4 0  9991
2 44733 053.0054 082.2970 0008408 291.3302 172.1216 15.73217776001814
1 44733U 19074W   20041.50001157  .00054131  00000-0  38690-3 0  9991
2 44733  53.0058  78.5681 0008406 295.1657  98.4589 15.73196011 14329
1 44733U 19074W   20041.58334491 +.00046493 +00000-0 +33314-3 0  9999
2 44733 053.0055 078.1536 0008471 295.5449 210.3207 15.73201909001833
1 44733U 19074W   20041.91667824 +.00055361 +00000-0 +39538-3 0  9993
2 44733 053.0055 076.4939 0008400 295.2452 299.6011 15.73205273001778
1 44733U 19074W   20042.25001157  .00002109  00000-0  19462-4 0  9999
2 44733  53.0055  74.8371 0008344 296.5662  27.2491 15.73233624 14440
1 44733U 19074W   20042.58334491  .00072842  00000-0  51806-3 0  9993
2 44733  53.0054  73.1804 0008508 298.4582 114.3183 15.73190193 14490
1 44733U 19074W   20042.51051249 -.00003551 +00000-0 -20740-4 0  9990
2 44733 053.0074 073.5422 0008344 300.3054 059.7138 15.73206160014312
1 44733U 19074W   20042.91667824  .00055876  00000-0  39918-3 0  9997
2 44733  53.0058  71.5205 0008436 298.0412 203.7076 15.73193832 14542
1 44733U 19074W   20043.58334491 +.00032832 +00000-0 +23670-3 0  9997
2 44733 053.0060 068.2070 0008595 302.6674 017.0392 15.73225162014657
1 44733U 19074W   20043.91667824  .00289730  00000-0  20005-2 0  9992
2 44733  53.0061  66.5474 0008377 301.3486 107.3401 15.73136765 14702
1 44733U 19074W   20044.25001157  .00067430  00000-0  47984-3 0  9998
2 44733  53.0061  64.8912 0008426 303.4915 194.1412 15.73208909 14756
1 44733U 19074W   20044.50001157  .00050560  00000-0  36180-3 0  9998
2 44733  53.0063  63.6490 0008586 305.1398 169.2306 15.73195441 14792
1 44733U 19074W   20044.58334491 +.00014285 +00000-0 +10578-3 0  9993
2 44733 053.0061 063.2342 0008591 305.2755 281.3276 15.73218740001781
1 44733U 19074W   20044.91667824  .00535661  00000-0  35925-2 0  9997
2 44733  53.0065  61.5744 0008337 305.4259  10.1784 15.73112926 14865
1 44733U 19074W   20045.25001157  .00171101  00000-0  12482-2 0  9994
2 44733  53.0071  59.9201 0008058 301.9742 102.1952 15.72210869 14918
1 44733U 19074W   20045.58334491 -.00040641  00000-0 -30609-3 0  9998
2 44733  53.0082  58.2854 0008329 282.6870 209.1036 15.71593946 14969
1 44733U 19074W   20045.91668981  .00056999  00000-0  44881-3 0  9997
2 44733  53.0073  56.6326 0008213 304.1914 274.4693 15.70884174 15023
1 44733U 19074W   20046.25001157  .01655204  00000-0  11965-1 0  9991
2 44733  53.0063  54.9819 0003550 261.9393  42.6479 15.69935049 15078
1 44733U 19074W   20046.58335648 -.00134343  00000-0 -11326-2 0  9991
2 44733  53.0077  53.3292 0002165 275.1871 114.5752 15.69476431 15124
1 44733U 19074W   20046.91667824 -.00092819  00000-0 -79950-3 0  9991
2 44733  53.0084  51.6801 0004715 277.3205 196.6730 15.68775497 15172
1 44733U 19074W   20047.25001157 -.00041978  00000-0 -36645-3 0  9994
2 44733  53.0073  50.0317 0003742 274.4640 282.9793 15.68124100 15239
1 44733U 19074W   20047.58334491 +.00509195 +00000-0 +43578-2 0  9990
2 44733 053.0070 048.3827 0000572 310.3459 329.7393 15.67330681015281
1 44733U 19074W   20047.91667824 -.00075478  00000-0 -70578-3 0  9991
2 44733  53.0085  46.7370 0001039  65.3830 296.4934 15.66701558 15332
1 44733U 19074W   20048.25001157 -.00099596  00000-0 -96183-3 0  9997
2 44733  53.0077  45.0934 0001055  80.0717   2.7628 15.66020937 15385
1 44733U 19074W   20048.58334491  .00252499  00000-0  24243-2 0  9991
2 44733  53.0078  43.4521 0001101  71.7571  91.2131 15.65284788 15430
1 44733U 19074W   20048.83334491  .00015658  00000-0  16312-3 0  9992
2 44733  53.0059  42.2234 0001165  76.7348  55.7907 15.64777400 15471
1 44733U 19074W   20049.25001157 -.00135044  00000-0 -14257-2 0  9998
2 44733  53.0064  40.1766 0001127  92.0285 228.7085 15.63934329 15544
1 44733U 19074W   20049.58334491  .00793676  00000-0  78610-2 0  9996
2 44733  53.0067  38.5385 0001118  86.1961 312.1917 15.63122784 15591
1 44733U 19074W   20049.83334491 -.00051361  00000-0 -55944-3 0  9990
2 44733  53.0048  37.3125 0001153  71.4009 294.6639 15.62715666 15634
1 44733U 19074W   20049.91667824 -.00048277 +00000-0 -52831-3 0  9992
2 44733 053.0084 036.9058 0001237 050.0775 065.1050 15.62569675001775
1 44733U 19074W   20050.25001157 -.00076274  00000-0 -86418-3 0  9998
2 44733  53.0080  35.2734 0001115  71.7098 119.4547 15.61873859 15700
1 44733U 19074W   20050.58334491  .00973214  00000-0  10415-1 0  9994
2 44733  53.0068  33.6423 0001414  78.0355 188.2990 15.61024819 15756
1 44733U 19074W   20050.91667824 -.00064952  00000-0 -77427-3 0  9990
2 44733  53.0069  32.0168 0001238  59.2868 281.3567 15.60493592 15808
1 44733U 19074W   20051.25001157 -.00085327  00000-0 -10493-2 0  9997
2 44733  53.0051  30.3951 0001140  58.0274 356.1168 15.59798554 15857
1 44733U 19074W   20051.50002315 -.00099836  00000-0 -12545-2 0  9992
2 44733  53.0068  29.1783 0001174  66.1312 312.6549 15.59303425 15897
1 44733U 19074W   20051.58334491 -.00054506 +00000-0 -68278-3 0  9993
2 44733 053.0071 028.7650 0001072 074.2921 052.5197 15.59125554001789
